[{"OBJECT_NAME":"SNUGLITE-II","OBJECT_ID":"2022-065F","EPOCH":"2026-03-09T22:40:50.457216","MEAN_MOTION":14.64130848,"ECCENTRICITY":0.00069277,"INCLINATION":98.203,"RA_OF_ASC_NODE":214.0486,"ARG_OF_PERICENTER":343.9284,"MEAN_ANOMALY":16.1698,"EPHEMERIS_TYPE":0,"CLASSIFICATION_TYPE":"U","NORAD_CAT_ID":52899,"ELEMENT_SET_NO":999,"REV_AT_EPOCH":19647,"BSTAR":0.00030689626,"MEAN_MOTION_DOT":1.565e-5,"MEAN_MOTION_DDOT":0},{"OBJECT_NAME":"METEOR 2-6 DEB","OBJECT_ID":"1980-073C","EPOCH":"2026-03-07T13:08:22.119072","MEAN_MOTION":14.62396284,"ECCENTRICITY":0.0021112,"INCLINATION":81.2076,"RA_OF_ASC_NODE":11.5799,"ARG_OF_PERICENTER":337.1769,"MEAN_ANOMALY":22.849,"EPHEMERIS_TYPE":0,"CLASSIFICATION_TYPE":"U","NORAD_CAT_ID":28986,"ELEMENT_SET_NO":999,"REV_AT_EPOCH":63712,"BSTAR":0.002596,"MEAN_MOTION_DOT":0.00013198,"MEAN_MOTION_DDOT":0}]
